[{"OBJECT_NAME":"OBJECT C","OBJECT_ID":"2024-085C","EPOCH":"2026-03-09T22:49:58.289376","MEAN_MOTION":15.31893958,"ECCENTRICITY":0.00283931,"INCLINATION":97.3357,"RA_OF_ASC_NODE":145.6975,"ARG_OF_PERICENTER":37.3887,"MEAN_ANOMALY":322.9323,"EPHEMERIS_TYPE":0,"CLASSIFICATION_TYPE":"U","NORAD_CAT_ID":59679,"ELEMENT_SET_NO":999,"REV_AT_EPOCH":10244,"BSTAR":0.00039740634,"MEAN_MOTION_DOT":0.0001232,"MEAN_MOTION_DDOT":0},{"OBJECT_NAME":"STARLINK-32788","OBJECT_ID":"2025-003R","EPOCH":"2026-03-09T22:59:49.827840","MEAN_MOTION":15.2759098,"ECCENTRICITY":7.027e-5,"INCLINATION":42.9941,"RA_OF_ASC_NODE":287.3671,"ARG_OF_PERICENTER":7.8344,"MEAN_ANOMALY":352.2518,"EPHEMERIS_TYPE":0,"CLASSIFICATION_TYPE":"U","NORAD_CAT_ID":62502,"ELEMENT_SET_NO":999,"REV_AT_EPOCH":6659,"BSTAR":0.00084614204,"MEAN_MOTION_DOT":0.00023103,"MEAN_MOTION_DDOT":0}]
